*******************************************************************************
JPL/HORIZONS              1698 Christophe (1934 CS)        2023-Sep-04 11:13:39
Rec #:    1698 (+COV) Soln.date: 2023-Aug-22_09:04:36   # obs: 6275 (1934-2023)
 
IAU76/J2000 helio. ecliptic osc. elements (au, days, deg., period=Julian yrs):
 
  EPOCH=  2457145.5 ! 2015-May-03.00 (TDB)         Residual RMS= .23993
   EC= .101550617765405    QR= 2.846369046657029   TP= 2456258.5400832244
   OM= 27.24170328654481   W=  128.9033217831595   IN= 1.496847460179951
   A= 3.168090604701213    MA= 155.0285472510976   ADIST= 3.489812162745396
   PER= 5.63903            N= .174786419           ANGMOM= .030459956
   DAN= 3.349              DDN= 2.94745            L= 156.1545822
   B= 1.1648045            MOID= 1.85686004        TP= 2012-Nov-27.0400832244
 
Asteroid physical parameters (km, seconds, rotational period in hours):
   GM= n.a.                RAD= 13.117             ROTPER= n.a.
   H= 11.39                G= .150                 B-V= n.a.
                           ALBEDO= .085            STYP= n.a.

ASTEROID comments: 
1: soln ref.= JPL#64, OCC=0
2: source=ORB
*******************************************************************************


*******************************************************************************
Ephemeris / API_USER Mon Sep  4 11:13:39 2023 Pasadena, USA      / Horizons
*******************************************************************************
Target body name: 1698 Christophe (1934 CS)       {source: JPL#64}
Center body name: Solar System Barycenter (0)     {source: DE441}
Center-site name: BODY CENTER
*******************************************************************************
Start time      : A.D. 2023-Aug-12 00:00:00.0000 TDB
Stop  time      : A.D. 2023-Aug-13 00:00:00.0000 TDB
Step-size       : 2880 minutes
*******************************************************************************
Center geodetic : 0.0, 0.0, 0.0                   {E-lon(deg),Lat(deg),Alt(km)}
Center cylindric: 0.0, 0.0, 0.0                   {E-lon(deg),Dxy(km),Dz(km)}
Center radii    : (undefined)
Small perturbers: Yes                             {source: SB441-N16}
Output units    : KM-S
Calendar mode   : Mixed Julian/Gregorian
Output type     : GEOMETRIC cartesian states
Output format   : 2 (position and velocity)
Reference frame : Ecliptic of J2000.0
*******************************************************************************
Initial IAU76/J2000 heliocentric ecliptic osculating elements (au, days, deg.):
  EPOCH=  2457145.5 ! 2015-May-03.00 (TDB)         Residual RMS= .23993        
   EC= .101550617765405    QR= 2.846369046657029   TP= 2456258.5400832244      
   OM= 27.24170328654481   W=  128.9033217831595   IN= 1.496847460179951       
  Equivalent ICRF heliocentric cartesian coordinates (au, au/d):
   X= 2.473888309019603E+00  Y=-2.190147778702801E+00  Z=-1.043187703945585E+00
  VX= 6.401721677233746E-03 VY= 5.511491780879028E-03 VZ= 2.458877384597864E-03
Asteroid physical parameters (km, seconds, rotational period in hours):        
   GM= n.a.                RAD= 13.117             ROTPER= n.a.                
   H= 11.39                G= .150                 B-V= n.a.                   
                           ALBEDO= .085            STYP= n.a.                  
*******************************************************************************
JDTDB
   X     Y     Z
   VX    VY    VZ
*******************************************************************************
$$SOE
2460168.500000000 = A.D. 2023-Aug-12 00:00:00.0000 TDB 
 X =-1.542294896184256E+08 Y = 4.080021862486607E+08 Z = 1.134346768539092E+07
 VX=-1.641027619844339E+01 VY=-7.645790844831911E+00 VZ= 1.437896227847402E-02
$$EOE
*******************************************************************************
 
TIME

  Barycentric Dynamical Time ("TDB" or T_eph) output was requested. This
continuous coordinate time is equivalent to the relativistic proper time
of a clock at rest in a reference frame co-moving with the solar system
barycenter but outside the system's gravity well. It is the independent
variable in the solar system relativistic equations of motion.

  TDB runs at a uniform rate of one SI second per second and is independent
of irregularities in Earth's rotation.
 
CALENDAR SYSTEM

  Mixed calendar mode was active such that calendar dates after AD 1582-Oct-15
(if any) are in the modern Gregorian system. Dates prior to 1582-Oct-5 (if any)
are in the Julian calendar system, which is automatically extended for dates
prior to its adoption on 45-Jan-1 BC.  The Julian calendar is useful for
matching historical dates. The Gregorian calendar more accurately corresponds
to the Earth's orbital motion and seasons. A "Gregorian-only" calendar mode is
available if such physical events are the primary interest.

REFERENCE FRAME AND COORDINATES

  Ecliptic at the standard reference epoch

    Reference epoch: J2000.0
    X-Y plane: adopted Earth orbital plane at the reference epoch
               Note: IAU76 obliquity of 84381.448 arcseconds wrt ICRF X-Y plane
    X-axis   : ICRF
    Z-axis   : perpendicular to the X-Y plane in the directional (+ or -) sense
               of Earth's north pole at the reference epoch.

  Symbol meaning:

    JDTDB    Julian Day Number, Barycentric Dynamical Time
      X      X-component of position vector (km)
      Y      Y-component of position vector (km)
      Z      Z-component of position vector (km)
      VX     X-component of velocity vector (km/sec)                           
      VY     Y-component of velocity vector (km/sec)                           
      VZ     Z-component of velocity vector (km/sec)                           

ABERRATIONS AND CORRECTIONS

 Geometric state vectors have NO corrections or aberrations applied.

Computations by ...

    Solar System Dynamics Group, Horizons On-Line Ephemeris System
    4800 Oak Grove Drive, Jet Propulsion Laboratory
    Pasadena, CA  91109   USA

    General site: https://ssd.jpl.nasa.gov/
    Mailing list: https://ssd.jpl.nasa.gov/email_list.html
    System news : https://ssd.jpl.nasa.gov/horizons/news.html
    User Guide  : https://ssd.jpl.nasa.gov/horizons/manual.html
    Connect     : browser        https://ssd.jpl.nasa.gov/horizons/app.html#/x
                  API            https://ssd-api.jpl.nasa.gov/doc/horizons.html
                  command-line   telnet ssd.jpl.nasa.gov 6775
                  e-mail/batch   https://ssd.jpl.nasa.gov/ftp/ssd/hrzn_batch.txt
                  scripts        https://ssd.jpl.nasa.gov/ftp/ssd/SCRIPTS
    Author      : Jon.D.Giorgini@jpl.nasa.gov
*******************************************************************************
